      2.10          N: GNSS NAV DATA                        RINEX VERSION / TYPE
fic2rin                                 09/30/2019 00:19:12 PGM / RUN BY / DATE
                                                            END OF HEADER
 3 19  9 29  8  0  0.0-1.624366268516e-05-4.433786671143e-12 0.000000000000e+00
    4.800000000000e+01-7.575000000000e+01 4.788770900101e-09-1.799603168787e+00
   -3.863126039505e-06 2.561203320511e-03 4.306435585022e-06 5.153697967529e+03
    2.880000000000e+04 4.284083843231e-08 2.093063265675e+00-9.685754776001e-08
    9.636245850033e-01 3.000000000000e+02 7.566313144913e-01-8.389635176266e-09
   -4.907347267854e-10 1.000000000000e+00 2.073000000000e+03 0.000000000000e+00
    2.400000000000e+00 0.000000000000e+00 1.862645149231e-09 4.800000000000e+01
    2.160000000000e+04 4.000000000000e+00
 7 19  9 29  8  0  0.0-1.163720153272e-04-7.958078640513e-12 0.000000000000e+00
    6.700000000000e+01 9.271875000000e+01 4.869488548029e-09-1.317765005310e+00
    4.926696419716e-06 1.315854548011e-02 5.289912223816e-06 5.153731576920e+03
    2.880000000000e+04 2.477318048477e-07-2.083442674584e+00-5.587935447693e-09
    9.544877765328e-01 2.689375000000e+02-2.427045072763e+00-8.414279059926e-09
    6.710993825544e-10 1.000000000000e+00 2.073000000000e+03 0.000000000000e+00
    2.400000000000e+00 0.000000000000e+00-1.117587089539e-08 6.700000000000e+01
    2.160000000000e+04 4.000000000000e+00
 6 19  9 29  8  0  0.0-7.324153557420e-05-1.273292582482e-11 0.000000000000e+00
    9.400000000000e+01 9.293750000000e+01 4.479115144553e-09-3.110645999692e-01
    4.878267645836e-06 1.397618209012e-03 6.370246410370e-06 5.153661701202e+03
    2.880000000000e+04-2.607703208923e-08 1.042450931111e+00 4.470348358154e-08
    9.765198714009e-01 2.669375000000e+02-1.168344827532e+00-8.228914195878e-09
    4.432327481373e-10 1.000000000000e+00 2.073000000000e+03 0.000000000000e+00
    2.400000000000e+00 0.000000000000e+00 4.190951585770e-09 9.400000000000e+01
    2.160000000000e+04 4.000000000000e+00
 4 19  9 29  8  0  0.0 1.055141910911e-05-4.752109816764e-11 0.000000000000e+00
    1.800000000000e+01-6.815625000000e+01 4.317679848696e-09 1.628443078916e+00
   -3.285706043243e-06 1.474316732492e-02 1.465529203415e-05 5.153688568115e+03
    2.880000000000e+04-3.334134817123e-07-1.078110615520e-01 1.173466444016e-07
    9.590751818795e-01 9.915625000000e+01 6.829134505207e-01-8.037477650349e-09
   -3.082271246112e-10 1.000000000000e+00 2.073000000000e+03 0.000000000000e+00
    2.400000000000e+00 6.300000000000e+01-5.587935447693e-09 1.800000000000e+01
    2.160000000000e+04 4.000000000000e+00
25 19  9 29  8  0  0.0-1.388974487782e-05-1.250555214938e-12 0.000000000000e+00
    8.000000000000e+00-8.365625000000e+01 4.881989068726e-09-2.354418165321e+00
   -4.393979907036e-06 8.432581322268e-03 4.652887582779e-06 5.153648107529e+03
    2.880000000000e+04 1.415610313416e-07-1.046450044433e+00-2.793967723846e-08
    9.684516397381e-01 2.922500000000e+02 8.945825612402e-01-8.378920444240e-09
   -3.485859485754e-10 1.000000000000e+00 2.073000000000e+03 0.000000000000e+00
    2.400000000000e+00 0.000000000000e+00 5.587935447693e-09 8.000000000000e+00
    2.160000000000e+04 4.000000000000e+00
22 19  9 29  8  0  0.0-7.594064809382e-04-3.524291969370e-12 0.000000000000e+00
    2.000000000000e+01-6.221875000000e+01 5.789526871319e-09 6.019008655070e-01
   -3.380700945854e-06 6.895571947098e-03 3.416091203690e-06 5.153687084198e+03
    2.880000000000e+04 9.313225746155e-09 2.015419203145e+00-1.080334186554e-07
    9.282273568752e-01 3.011562500000e+02-1.280348378232e+00-9.045019618516e-09
   -4.803771524937e-10 1.000000000000e+00 2.073000000000e+03 0.000000000000e+00
    2.400000000000e+00 0.000000000000e+00-1.816079020500e-08 2.000000000000e+01
    2.160000000000e+04 4.000000000000e+00
30 19  9 29  8  0  0.0-5.075335502625e-05-8.071765478235e-12 0.000000000000e+00
    1.700000000000e+01 9.593750000000e+01 5.264505002050e-09-1.366909998774e+00
    4.803761839867e-06 4.178889561445e-03 5.133450031281e-06 5.153750467300e+03
    2.880000000000e+04 2.607703208923e-08-2.057132755631e+00-1.117587089539e-08
    9.398749789597e-01 2.665937500000e+02-2.897594554272e+00-8.668932524407e-09
    6.193115110960e-10 1.000000000000e+00 2.073000000000e+03 0.000000000000e+00
    2.400000000000e+00 0.000000000000e+00 3.725290298462e-09 1.700000000000e+01
    2.160000000000e+04 4.000000000000e+00
23 19  9 29  8  0  0.0-1.642773859203e-04 2.046363078989e-12 0.000000000000e+00
    1.500000000000e+01-2.478125000000e+01 4.582333729736e-09 1.200490530049e-01
   -1.119449734688e-06 1.322909351438e-02 1.354888081551e-05 5.153758583069e+03
    2.880000000000e+04-9.685754776001e-08 3.118304500185e+00 3.073364496231e-07
    9.439155528430e-01 1.132187500000e+02-2.226796362229e+00-8.200698734876e-09
   -8.178912113090e-11 1.000000000000e+00 2.073000000000e+03 0.000000000000e+00
    2.400000000000e+00 0.000000000000e+00-2.002343535423e-08 1.500000000000e+01
    2.160000000000e+04 4.000000000000e+00
31 19  9 29  8  0  0.0 7.121823728085e-06-2.614797267597e-12 0.000000000000e+00
    1.300000000000e+01 9.409375000000e+01 4.906275794652e-09-1.609993759662e+00
    4.518777132034e-06 9.395364671946e-03 6.139278411865e-06 5.153699584961e+03
    2.880000000000e+04 7.450580596924e-09-2.068869040791e+00-1.750886440277e-07
    9.589846886930e-01 2.600312500000e+02 3.205426867467e-02-8.436422839446e-09
    7.836040688262e-10 1.000000000000e+00 2.073000000000e+03 0.000000000000e+00
    2.400000000000e+00 0.000000000000e+00-1.350417733192e-08 1.300000000000e+01
    2.160000000000e+04 4.000000000000e+00
24 19  9 29  8  0  0.0-2.776738256216e-06-4.547473508865e-13 0.000000000000e+00
    3.600000000000e+01 1.033125000000e+02 5.407725253463e-09-3.846244687873e-01
    5.498528480530e-06 8.748688851483e-03 5.943700671196e-06 5.153698865891e+03
    2.880000000000e+04 1.341104507446e-07-2.151540095070e+00 1.024454832077e-07
    9.377521809595e-01 2.543125000000e+02 6.065883081178e-01-8.846797076037e-09
    6.471698143633e-10 1.000000000000e+00 2.073000000000e+03 0.000000000000e+00
    2.400000000000e+00 0.000000000000e+00 2.793967723846e-09 3.600000000000e+01
    2.160000000000e+04 4.000000000000e+00
32 19  9 29  8  0  0.0 7.379846647382e-05 1.330136001343e-11 0.000000000000e+00
    2.100000000000e+01-1.606250000000e+01 4.146244136282e-09 2.254748156568e+00
   -7.115304470062e-07 3.227554960176e-03 1.504272222519e-05 5.153642063141e+03
    2.880000000000e+04-6.332993507385e-08 3.131881624904e+00-6.519258022308e-08
    9.573206310812e-01 8.275000000000e+01-2.509041847618e+00-7.862827518327e-09
   -8.643217167545e-11 1.000000000000e+00 2.073000000000e+03 0.000000000000e+00
    2.400000000000e+00 0.000000000000e+00 4.656612873077e-10 2.100000000000e+01
    2.160000000000e+04 4.000000000000e+00
16 19  9 29  8  0  0.0-7.852120324969e-05-3.524291969370e-12 0.000000000000e+00
    1.000000000000e+02-9.078125000000e+01 4.520902599454e-09 2.474307296511e+00
   -4.723668098450e-06 1.080895739142e-02 5.194917321205e-06 5.153638641357e+03
    2.880000000000e+04-1.229345798492e-07-9.616502468556e-01-1.285225152969e-07
    9.814369307076e-01 2.930937500000e+02 5.805760929932e-01-8.135696027253e-09
   -4.578762152394e-10 1.000000000000e+00 2.073000000000e+03 0.000000000000e+00
    2.400000000000e+00 0.000000000000e+00-1.071020960808e-08 1.000000000000e+02
    2.160000000000e+04 4.000000000000e+00
 9 19  9 29  8  0  0.0-4.339357838035e-05-9.777068044059e-12 0.000000000000e+00
    6.200000000000e+01-1.609375000000e+01 4.223033049134e-09 1.990545154378e+00
   -7.823109626770e-07 1.447337213904e-03 1.385994255543e-05 5.153600650787e+03
    2.880000000000e+04 5.587935447693e-08 3.124603623551e+00 2.048909664154e-08
    9.531085344419e-01 1.082500000000e+02 1.667373938852e+00-7.893543083468e-09
   -4.607334771129e-11 1.000000000000e+00 2.073000000000e+03 0.000000000000e+00
    2.400000000000e+00 0.000000000000e+00 1.396983861923e-09 6.200000000000e+01
    2.160000000000e+04 4.000000000000e+00
27 19  9 29  8  0  0.0-7.108878344297e-05-1.239186531166e-11 0.000000000000e+00
    7.200000000000e+01-3.931250000000e+01 3.883733201648e-09 1.518814198285e+00
   -1.817941665649e-06 7.215885096230e-03 1.491419970989e-05 5.153662973404e+03
    2.880000000000e+04-7.823109626770e-08-4.245936860313e-03 1.434236764908e-07
    9.789423218371e-01 1.014375000000e+02 5.120306640867e-01-7.749965674321e-09
   -1.725071856167e-10 1.000000000000e+00 2.073000000000e+03 0.000000000000e+00
    2.400000000000e+00 0.000000000000e+00 1.396983861923e-09 7.200000000000e+01
    2.160000000000e+04 4.000000000000e+00
14 19  9 29  8  0  0.0-5.882885307074e-05 2.046363078989e-12 0.000000000000e+00
    8.500000000000e+01-1.359375000000e+01 4.049811548049e-09 1.241686306087e+00
   -5.923211574554e-07 1.076097378973e-02 1.490116119385e-05 5.153764039993e+03
    2.880000000000e+04-1.974403858185e-07-3.064764185444e+00-5.587935447693e-08
    9.610272719691e-01 9.140625000000e+01-1.930481257825e+00-7.982475359282e-09
   -4.393040130612e-11 1.000000000000e+00 2.073000000000e+03 0.000000000000e+00
    3.400000000000e+00 0.000000000000e+00-9.778887033463e-09 8.500000000000e+01
    2.160000000000e+04 4.000000000000e+00
15 19  9 29  8  0  0.0-2.835444174707e-04 2.728484105319e-12 0.000000000000e+00
    9.100000000000e+01-2.081250000000e+01 4.869488548029e-09 6.246462090104e-01
   -9.164214134216e-07 1.178119122051e-02 1.398287713528e-05 5.153583612442e+03
    2.880000000000e+04-1.620501279831e-07 3.041433120263e+00 1.434236764908e-07
    9.286042177387e-01 9.465625000000e+01 8.134252234084e-01-8.325346784111e-09
   -2.978695503195e-10 1.000000000000e+00 2.073000000000e+03 0.000000000000e+00
    2.400000000000e+00 0.000000000000e+00-1.071020960808e-08 9.100000000000e+01
    2.160000000000e+04 4.000000000000e+00
